O3B MPOWER F1           
1 54755U 22174A   23311.00526118 -.00000023  00000+0  00000+0 0  9999
2 54755   0.0528  19.1434 0005430 221.9533  12.5115  5.00118485 17670
